[{"OBJECT_NAME":"VSP RF A1","OBJECT_ID":"2024-043AP","EPOCH":"2026-03-07T00:44:15.345024","MEAN_MOTION":15.26179596,"ECCENTRICITY":0.00094313,"INCLINATION":97.5247,"RA_OF_ASC_NODE":201.5379,"ARG_OF_PERICENTER":234.6315,"MEAN_ANOMALY":125.4042,"EPHEMERIS_TYPE":0,"CLASSIFICATION_TYPE":"U","NORAD_CAT_ID":59135,"ELEMENT_SET_NO":999,"REV_AT_EPOCH":11140,"BSTAR":2.5198753e-5,"MEAN_MOTION_DOT":5.77e-6,"MEAN_MOTION_DDOT":0},{"OBJECT_NAME":"STARLINK-31410","OBJECT_ID":"2024-045B","EPOCH":"2026-03-09T10:52:37.312032","MEAN_MOTION":15.27577428,"ECCENTRICITY":0.00015375,"INCLINATION":43.006,"RA_OF_ASC_NODE":94.0186,"ARG_OF_PERICENTER":287.757,"MEAN_ANOMALY":72.3113,"EPHEMERIS_TYPE":0,"CLASSIFICATION_TYPE":"U","NORAD_CAT_ID":59179,"ELEMENT_SET_NO":999,"REV_AT_EPOCH":11312,"BSTAR":4.097753e-6,"MEAN_MOTION_DOT":-1.5e-6,"MEAN_MOTION_DDOT":0}]
